#dP2021  7  3  0  0  0.00000000      96 __u+U ITR00 FIT  IAC
## 2164 518400.00000000   900.00000000 59398 0.0000000000000
+  126   C01C02C03C04C05C06C07C09C10C11C12C13C14C16C19C20C21
+        C22C23C24C25C26C27C28C29C30C32C33C34C35C36C37C38C39
+        C40C41C42C43C44C45C46C60E01E02E03E04E05E07E08E09E11
+        E12E13E14E15E18E19E21E24E25E26E27E30E31E33E36G01G02
+        G03G04G05G06G07G08G09G10G11G12G13G14G15G16G17G18G19
+        G20G21G22G23G24G25G26G27G28G29G30G31G32J01J02J03J07
+        R01R02R03R04R05R06R07R08R09R10R11R12R13R14R15R16R17
+        R18R19R20R21R22R23R24  0  0  0  0  0  0  0  0  0  0
++        13 12  0 14 13  9  9  8  9  8  9  9  9  9  8  7  8
++         8  7  8  7  8  7  7  8  8  8  8  8  8  8  8  8  8
++         8  8  8  8  8  8  8 17  4  4  4  5  4  4  4  4  4
++         4  5  5  4  4  4  4  4  4  4  4  4  4  4  4  4  4
++         4  4  4  3  4  3  4  3  4  4  3  3  3  4  3  3  4
++         4  4  4  3  3  4  4  4  4  4  3  4  3 13 12 12 15
++         7  6  6  6  6 13  6  5  5 13  7  6  7  6  6  7  6
++         6  7  7  6  8 13  6  0  0  0  0  0  0  0  0  0  0
%c M  cc GPS ccc cccc cccc cccc cccc ccccc ccccc ccccc ccccc
%c cc cc ccc ccc cccc cccc cccc cccc ccccc ccccc ccccc ccccc
%f  0.0000000  0.000000000  0.00000000000  0.000000000000000
%f  0.0000000  0.000000000  0.00000000000  0.000000000000000
%i    0    0    0    0      0      0      0      0         0
%i    0    0    0    0      0      0      0      0         0
/* INFORMATION & ANALYSIS CENTER (IAC)            RAPID DATA
/* S/V CLOCKS ARE ALIGNED TO GNSS TIME                      
/* G:C1WC2W R:C1PC2P E:C1XC5X C:C2IC6I J:C1CC2S             
/* PCV:IGS14_2148 OL/AL:FES2004  NONE     YN ORB:CoN CLK:CoN
*  2021 07 03  4 30  0.00000000
PC01 -34273.172394  24532.367276    149.677325   -311.550418
PC02   4324.695780  41923.843226   -291.803245    541.717926
PC03      0.000000      0.000000      0.000000 999999.999999
PC04 -39584.695983  14454.995168    639.927078   -223.586347
PC05  21801.695634  36050.674333   -407.997860    -62.385844
PC06 -16916.797740  20595.773032 -32300.274547    576.809860
PC07 -20064.823977  36395.442736   5405.981802    162.862950
PC09     97.075558  24806.872781 -33746.901429    402.882991
PC10  -9342.847026  37415.554630  16692.492072    -22.927489
PC11  16697.950908  15758.003311  15946.724381    435.194084
PC12  -2850.026373  15122.577890  23306.521386    823.992401
PC13   4185.343638  38538.726818  16985.753426    322.443814
PC14   5990.236239  15830.675030 -22150.020515    842.390838
PC16 -13809.251632  21392.018562 -33515.634807   -938.075687
PC19 -14268.359092  -7836.101644  22690.772106    894.855113
PC20   1714.717732 -20411.551121  18984.737533   -856.570425
PC21 -17548.138525  21362.064169  -3678.077748   -935.066971
PC22 -22515.631554   9660.194746  13332.857678   -948.611340
PC23  16423.828393  -1034.637951  22548.243653   -956.597144
PC24   4894.187170  27305.279752  -3128.160708   -920.815695
PC25  15915.393626  17834.649118  14413.267900   -891.736236
PC26  -6948.530344  20676.059826 -17428.041215    884.184981
PC27  13258.156714 -11751.014010 -21580.687391    558.139803
PC28  26203.198351    488.048712  -9600.513870    -55.152582
PC29 -24148.695048 -11493.773694  -7979.955700    414.308749
PC30  -7413.595052 -16780.341224 -21043.449863    472.767677
PC32  17386.980149 -21525.138340   3700.891164   -924.095330
PC33  14297.753282   7798.071114 -22655.234774   -939.870637
PC34   8187.016032  16811.954673  20693.692411   -636.758267
PC35 -26347.861521    175.792047   9231.067929   -205.080578
PC36 -15357.370395 -18525.761963 -14104.506898   -730.310057
PC37   8038.388419 -19755.756941  18011.652481   -868.324427
PC38  -4084.183991  34044.107576  24633.530183    159.200235
PC39 -11119.590360  22599.044434 -33818.477797     32.159650
PC40 -18281.725836  34968.067525  14675.398808    176.840855
PC41  22465.092684  -9502.274827 -13506.514430   -954.334092
PC42  -2408.148389  20733.463397 -18467.337483   -916.479633
PC43  23783.134337  11896.444701   8415.426609   -803.919956
PC44 -13137.041422  12178.550366  21392.207283    270.068129
PC45 -16261.073215   1206.111287 -22635.225081    483.304746
PC46  -5652.397426 -27228.214166   2139.452949    196.589132
PC60   7298.465117  41476.131760   1781.530373     -0.829886
PE01  -7244.647803  28675.119536  -1171.702996  -1142.024978
PE02   7164.375640 -28696.177080   1049.823426    230.273554
PE03  10479.565767 -18572.682964  20538.995215   -448.510457
PE04  11222.190135  13940.201555 -23567.651417   -805.224556
PE05  26354.883356 -12359.915544   5393.038451   -268.200421
PE07 -26694.990536  -1001.079030  12746.574152   -557.092510
PE08 -11582.566212 -13600.508895  23605.523485   5976.407961
PE09  26771.241149    643.714666 -12623.569026   5613.319870
PE11  24507.658754  11898.090014 -11572.829199   5771.660578
PE12  17411.324631  22596.785361   7860.016831   5130.123895
PE13 -24535.171421 -12217.079352  11180.924858    418.527091
PE14  29214.659786  -4239.361948  -2895.830592  -1487.038968
PE15 -17529.442861 -22524.144946  -7853.994853    805.540391
PE18 -25274.940178  -6025.249956  -8716.806356  -1629.344588
PE19 -12895.706069  18284.815052 -19368.472978    317.323516
PE21 -16056.962020  17541.475791 -17620.747177   -674.081854
PE24  15784.017124   5328.289802  24459.168697   -987.302918
PE25  16117.887921 -17347.020044  17771.633764   -538.802413
PE26 -16591.229619   6084.117652  23741.793576   1623.510860
PE27 -16012.089196  -4218.465595 -24528.952703    -67.345491
PE30  -5823.405712 -24063.626985 -16222.732808   2814.901522
PE31   6567.303542  23340.816244  16985.430616   -482.845359
PE33    215.204988  19545.359922  22223.486168   -468.248862
PE36  17077.827646  -5269.264247 -23598.239203   -229.195727
PG01 -19668.426838 -10400.429009  14494.688277    639.924203
PG02  12580.698001  22295.339791   7604.001653   -616.853227
PG03 -15475.365424  -1134.502307  21449.806232   -209.257263
PG04 -26027.151090  -1360.852214   5295.458709   -201.496769
PG05   9764.804907  14375.992098 -20198.125629    -46.755446
PG06   3007.147822  21272.207160  15636.474113     34.756771
PG07 -15409.484457   4275.775993 -20917.370241    193.259098
PG08 -21173.218528  -7142.265823 -14599.483940    -27.363302
PG09 -24844.473408   7594.142641  -5649.883713   -353.901835
PG10  11604.093642 -23602.780962  -2297.884605   -154.393367
PG11  10463.270869  23593.467417   6255.383146      5.107336
PG12  14859.804678   3094.637326  21530.972442    -63.319387
PG13  13688.462496  13067.746903 -18827.220826    152.688806
PG14 -12686.995325  23212.814996  -2136.344168     56.333193
PG15  22055.180586   5606.471458 -14343.501195   -138.203356
PG16  -3689.739954 -19167.412497 -18041.718837   -350.940635
PG17 -15091.172174  13008.366064  17992.453445    467.863073
PG18  13108.814899  -7519.035600 -21858.026398    343.450614
PG19  -5898.063044  14354.749191  21249.382988     21.294406
PG20   6212.329881  20891.623285 -15359.700449    520.570895
PG21 -20949.872084 -14891.925898   8359.506102    128.892499
PG22 -12937.453565 -10417.436438  20943.500721   -573.226002
PG23  16117.280448 -16718.362513 -12861.172078     89.636899
PG24  21043.612261  13202.573461   9682.544228    158.962043
PG25  17217.040051  -9795.496713  17298.495747    166.715795
PG26   2394.687355 -24835.477925  -8754.531802    105.910177
PG27 -11367.066207 -12675.821206 -20659.630017   -156.863516
PG28  -9465.966355  24554.052369   4824.624428    544.436241
PG29  25786.335369  -4480.256454  -4744.013692   -374.022515
PG30  -6104.465592  16462.267828 -19797.105755   -446.275074
PG31  -4018.243610 -22139.163581  13646.559955   -126.484554
PG32  11642.673061 -14850.894465  18737.129876     15.979511
PJ01 -36030.900893  21343.012959      3.936483   -407.613600
PJ02 -21987.046548  30252.906840 -14825.297182     -0.554307
PJ03 -27318.379426  23789.121716  26757.574278     -9.868505
PJ07 -25387.859479  33657.396157    -14.597671      0.018177
PR01  20774.039366  -7352.106863 -12857.835698     81.774033
PR02  17886.970501 -16503.217403   7586.132070    484.611759
PR03   3752.571355 -14519.896164  20664.461804     38.781952
PR04 -12097.056075  -4250.185099  22081.844417     94.032347
PR05 -21396.510575   8247.179528  11208.736609     74.643732
PR06 -16856.983390  17218.312168  -8406.793921    200.780673
PR07  -3258.163228  14273.393943 -20859.537465    -42.160655
PR08  12201.649793   4251.093589 -21931.804153    -59.775722
PR09  -5671.215126  19608.063130 -15228.438178      0.974163
PR10   2466.160336  25424.000744    106.629248    -72.480113
PR11   9541.530373  16778.442284  16681.211557    -17.800116
PR12  10826.510444  -2163.498857  23024.305859    242.148833
PR13   5779.842994 -19113.479918  15864.916653    -57.148727
PR14  -2807.664627 -25332.424741  -1258.832067     66.027200
PR15  -9507.935246 -16473.304241 -16976.282238    102.908136
PR16 -10758.159898   3801.312803 -22838.919609    -17.291322
PR17  -8078.344976 -13868.453546 -19810.783639    437.800046
PR18 -20857.294043 -13312.634312  -6296.706569     82.105862
PR19 -22553.026727  -6810.749136   9765.166711   -150.066552
PR20 -10315.728628   5924.971651  22569.788315    -51.863464
PR21   9315.332526  14087.946003  19119.753955   -221.026764
PR22  21183.278166  13094.311534   5270.307936   -120.724363
PR23  20097.125817   2154.842016 -15575.242656     -8.674968
PR24   9734.841606  -6937.318329 -22526.702163     48.916738
EOF
